#aV2016  2 28  0  0  0.00000000     288 DD+AD WGS84 FIT  NGA
## 1886      0.00000000   300.00000000 57446 0.0000000000000
+   30     1  2  3  5  6  7  8  9 10 11 12 13 14 15 16 17 18
+         19 20 21 22 23 24 25 26 27 28 29 30 31  0  0  0  0
+          0  0  0  0  0  0  0  0  0  0  0  0  0  0  0  0  0
+          0  0  0  0  0  0  0  0  0  0  0  0  0  0  0  0  0
+          0  0  0  0  0  0  0  0  0  0  0  0  0  0  0  0  0
++         2  2  2  2  2  2  2  2  2  2  2  2  2  2  2  2  2
++         2  2  2  2  2  2  2  2  2  2  2  2  2  0  0  0  0
++         0  0  0  0  0  0  0  0  0  0  0  0  0  0  0  0  0
++         0  0  0  0  0  0  0  0  0  0  0  0  0  0  0  0  0
++         0  0  0  0  0  0  0  0  0  0  0  0  0  0  0  0  0
%c cc cc ccc ccc cccc cccc cccc cccc ccccc ccccc ccccc ccccc
%c cc cc ccc ccc cccc cccc cccc cccc ccccc ccccc ccccc ccccc
%f  0.0000000  0.000000000  0.00000000000  0.000000000000000
%f  0.0000000  0.000000000  0.00000000000  0.000000000000000
%i    0    0    0    0      0      0      0      0         0
%i    0    0    0    0      0      0      0      0         0
/*      NGA, ST. LOUIS,MO.                                  
/*   EPHEMERIS COMPUTED FROM 2 DAYS OF DATA                 
/*   EPOCHA v2.4 SMOOTHER                                   
/*   G1762 IERS2010 SATAF SATAPC                            
*  2016  2 28 12 35  0.00000000
P  1 -12218.222468  21805.693514  -8720.558411     12.965167                    
V  1  -9496.391951   6212.808956  29298.264566      0.010517                    
P  2  20681.835375 -11410.677240 -11299.316897    599.442446                    
V  2  -7415.422735  13650.792044 -26787.399902     -0.001443                    
P  3  -5659.017366  14279.258991 -21669.601164    -30.106959                    
V  3 -26767.416774  -6389.262366   2767.613515     -0.045715                    
P  5  23357.012069  -3872.071485  12165.737974   -142.059256                    
V  5  14607.493331   5818.618302 -25850.487633      0.033868                    
P  6  17036.394714   2285.316319 -20235.628826    152.569602                    
V  6 -16718.548097  19560.610462 -11864.578911      0.059392                    
P  7   2018.294546  17529.416556  19857.557430    467.616149                    
V  7 -18395.895354  17028.301523 -13632.157110     -0.017131                    
P  8  -8552.355422  16668.095609  18876.900668    -25.591289                    
V  8  -8484.286198 -22337.065460  15947.649031     -0.014149                    
P  9   7882.228284  25356.999087   -136.280402     79.794086                    
V  9  -2914.334870    760.968168 -31638.059374      0.076296                    
P 10 -22921.814742 -10875.934444   7965.612500     36.881150                    
V 10  10413.229659   -329.115328  29499.487114     -0.063084                    
P 11 -10137.236387  24504.490682    250.924168   -634.418447                    
V 11  -4187.661465  -2720.418031  30276.387281     -0.017692                    
P 12   9886.885858 -11947.052654 -21645.854223    370.318961                    
V 12  25991.549566   7908.286955   7761.160418      0.016383                    
P 13  13265.964581  -8298.722055  21337.488411   -188.458461                    
V 13   5550.190591  26803.526354   6842.214822     -0.028758                    
P 14 -14219.943603 -16881.742950 -14631.657234      0.422399                    
V 14  -2239.142678 -18921.535660  23458.493622     -0.022406                    
P 15   5228.247065 -20245.646707  16054.123987   -299.340686                    
V 15   9788.473662  18598.005184  20453.739321     -0.017871                    
P 16 -23747.389087   1107.425291  12155.238818    -36.172681                    
V 16 -14346.199031  -5710.282061 -26928.659918      0.030436                    
P 17  14054.646570  17972.571726 -13429.667505   -201.337075                    
V 17   2612.325445  17401.800223  25215.041765     -0.004887                    
P 18 -13449.975742 -15861.701497  17192.047203    488.267085                    
V 18  20853.978669   2031.729165  18498.205825      0.039962                    
P 19  15662.876983   6759.388037 -20476.994179   -525.019476                    
V 19   4153.448469  25254.911011  12022.863485     -0.002262                    
P 20   9386.628986 -14071.328688  20332.415494    395.902143                    
V 20  25867.826679   4819.971226  -8486.431319      0.026024                    
P 21  -6724.390894 -15742.161587  20994.986197   -512.578661                    
V 21  17422.879452 -18168.652549  -8625.641930     -0.017375                    
P 22 -24120.250847   3369.855428 -10590.424991    389.920431                    
V 22 -12868.363058  -6009.095320  26649.578860     -0.062415                    
P 23   -524.853598  24073.586393 -10531.637417   -162.242840                    
V 23  -7160.862767 -12242.880517 -27610.974976     -0.018349                    
P 24  14022.125993 -21743.658132  -5580.914490    -13.136039                    
V 24   7092.211616  -3152.122637  30571.739182     -0.005656                    
P 25  -3919.442770 -15588.856941 -21286.820154   -125.054417                    
V 25  26120.310119   5491.030458  -8689.447925     -0.068155                    
P 26 -26153.235970  -4211.684360   2240.275956   -272.739570                    
V 26  -2170.616529  -3319.054652 -31558.876302     -0.152163                    
P 27 -13907.858902   5721.117458  21865.284506     67.120256                    
V 27  -8472.323824 -26470.393206   1685.857749      0.036694                    
P 28  21420.469088  13077.834064   9391.985003    505.572157                    
V 28 -10947.700414  -1765.859521  29372.163089      0.026308                    
P 29  -4414.466584 -26045.487441  -2956.544328    655.044254                    
V 29   3120.008505   3103.872173 -31770.656325      0.006087                    
P 30  11340.778195  10429.768630  21628.138263    101.389237                    
V 30 -20020.096912  18865.151806   1318.420168      0.041279                    
P 31 -18374.297592    -89.319992 -19202.352060    280.654166                    
V 31  16515.730681 -18074.344487 -15274.187951     -0.016806                    
EOF
